SKYSAT-C8
1 42990U 17068D   18094.34774794  .00000536  00000-0  27064-4 0  9990
2 42990  97.3957 209.7435 0006338  32.2229 327.9393 15.21234263 23455
